     3.04           N: GNSS NAV DATA    M: MIXED            RINEX VERSION / TYPE
sbf2rin-15.10.3                         20250508 043242 UTC PGM / RUN BY / DATE 
GPSA   2.2352E-08  2.2352E-08 -1.1921E-07 -1.1921E-07       IONOSPHERIC CORR    
GPSB   1.2698E+05  8.1920E+04 -1.9661E+05  0.0000E+00       IONOSPHERIC CORR    
GAL    1.4500E+02  9.7656E-02  6.9885E-03  0.0000E+00       IONOSPHERIC CORR    
GPUT  1.8626451492E-09 8.881784197E-15 503808 2365          TIME SYSTEM CORR    
GAUT  0.0000000000E+00 0.000000000E+00 345600 2365          TIME SYSTEM CORR    
GAGP  2.1536834538E-09 2.486899575E-14 345600 2365          TIME SYSTEM CORR    
    18                                                      LEAP SECONDS        
                                                            END OF HEADER       
C38 2025 05 08 04 00 00 2.239849418402E-04 2.133404564120E-12 0.000000000000E+00
     1.000000000000E+00 9.120312500000E+01 8.296774165375E-10 2.428751560851E+00
     3.557652235031E-06 1.985385082662E-03 1.894822344184E-05 6.493754837036E+03
     3.600000000000E+05-5.946494638920E-07 3.136621254191E+00-6.514601409435E-07
     1.015047444320E+00-3.173437500000E+02-2.395120719992E+00-1.989368579472E-09
     8.414636217660E-10 0.000000000000E+00 1.009000000000E+03 0.000000000000E+00
     2.000000000000E+00 0.000000000000E+00 3.000000000000E-09 3.000000000000E-09
     3.612480000000E+05 1.000000000000E+00
C08 2025 05 08 04 00 00-3.398782573640E-04-6.138911601283E-11 0.000000000000E+00
     1.000000000000E+00 8.314062500000E+01 1.714357124141E-10 3.032226779296E+00
     3.389548510313E-06 3.008848289028E-03 1.800525933504E-05 6.493355703354E+03
     3.600000000000E+05 9.788200259209E-07-3.108946666736E+00 2.686865627766E-07
     1.079860594700E+00-2.753593750000E+02 3.091634336191E+00-1.060401312828E-09
     7.696749171926E-10 0.000000000000E+00 1.009000000000E+03 0.000000000000E+00
     2.000000000000E+00 0.000000000000E+00 1.130000000000E-08-7.000000000000E-10
     3.612480000000E+05 0.000000000000E+00
C56 2025 05 07 07 00 00 6.150292465463E-04 2.140865262845E-11 0.000000000000E+00
     3.100000000000E+01 2.236093750000E+02 2.030798876639E-09-4.883367791298E-01
     6.893184036016E-06 4.641683772206E-03-2.985820174217E-06 6.493828577042E+03
     2.844000000000E+05-3.678724169731E-08 6.373336103602E-01-1.932494342327E-07
     8.998330298175E-01 3.084375000000E+02-2.934558216563E+00-2.780830118451E-09
    -4.321608583773E-11 0.000000000000E+00 1.009000000000E+03 0.000000000000E+00
     2.000000000000E+00 1.000000000000E+00-3.010000000000E-08 0.000000000000E+00
     3.612780000000E+05 2.500000000000E+01
C40 2025 05 08 04 00 00-1.388002419844E-04-2.546407529280E-12 0.000000000000E+00
     1.000000000000E+00 6.109375000000E+01 1.611495696693E-09-1.058477363979E+00
     1.739244908094E-06 4.376132157631E-03-5.302485078573E-06 6.493725612640E+03
     3.600000000000E+05 1.094304025173E-07 1.101560651051E+00-1.564621925354E-07
     9.683036026689E-01 4.112187500000E+02-3.139736074496E+00-2.650110387735E-09
    -1.500062483624E-10 0.000000000000E+00 1.009000000000E+03 0.000000000000E+00
     2.000000000000E+00 0.000000000000E+00 9.000000000000E-10 9.000000000000E-10
     3.612780000000E+05 1.000000000000E+00
C32 2025 05 08 04 00 00-9.518172591925E-04 1.660893644839E-12 0.000000000000E+00
     3.000000000000E+00 3.179687500000E+01 3.833016803392E-09 9.590966443507E-01
     1.594889909029E-06 7.045731181279E-04 5.682930350304E-06 5.282623218536E+03
     3.600000000000E+05-1.490116119385E-08-2.549485683764E+00-1.257285475731E-08
     9.820962327759E-01 2.605625000000E+02-5.893676001319E-01-6.832784612905E-09
     4.160887603384E-10 0.000000000000E+00 1.009000000000E+03 0.000000000000E+00
     2.000000000000E+00 0.000000000000E+00-6.900000000000E-09-6.900000000000E-09
     3.613380000000E+05 1.000000000000E+00
C29 2025 05 08 04 00 00 4.389913519844E-04 5.075051490167E-12 0.000000000000E+00
     1.000000000000E+00-6.143750000000E+01 3.974808423868E-09-5.716089654649E-01
    -2.979300916195E-06 2.798613859341E-04 4.732515662909E-06 5.282613906860E+03
     3.600000000000E+05-6.239861249924E-08 1.604974354607E+00 3.585591912270E-08
     9.518381948985E-01 2.617031250000E+02 1.525444024524E+00-7.057793985449E-09
    -2.321525272275E-10 0.000000000000E+00 1.009000000000E+03 0.000000000000E+00
     2.000000000000E+00 0.000000000000E+00 3.000000000000E-10 3.000000000000E-10
     3.613380000000E+05 1.000000000000E+00
C20 2025 05 08 04 00 00-8.430531015620E-04 2.806643806252E-13 0.000000000000E+00
     1.000000000000E+00 2.956250000000E+01 3.770871357642E-09-2.397992245317E-01
     1.518987119198E-06 9.243607055396E-04 5.451496690512E-06 5.282627885818E+03
     3.600000000000E+05-1.024454832077E-08-2.541874112220E+00 7.916241884232E-09
     9.832763629387E-01 2.633437500000E+02-2.333111652951E-01-6.814926726195E-09
     4.246605459591E-10 0.000000000000E+00 1.009000000000E+03 0.000000000000E+00
     2.000000000000E+00 0.000000000000E+00 1.280000000000E-08 1.280000000000E-08
     3.613380000000E+05 1.000000000000E+00
J02 2025 05 08 05 00 00-1.452863216400E-07-1.136868377216E-13 0.000000000000E+00
     1.770000000000E+02 5.463437500000E+02 1.612924327630E-09-1.356846753542E+00
     1.859292387962E-05 7.612050801981E-02-3.242865204811E-06 6.492962677002E+03
     3.636000000000E+05 1.573935151100E-06 4.705851884134E-01 5.848705768585E-07
     6.997345478040E-01 3.009687500000E+02-1.588152429312E+00-2.060800126311E-09
     2.739399821284E-10 2.000000000000E+00 2.365000000000E+03 1.000000000000E+00
     2.800000000000E+00 1.000000000000E+00 1.862645149231E-09 9.450000000000E+02
     3.612660000000E+05 0.000000000000E+00
